BRITE-CA1 (TORONTO)     
1 40020U 14033L   26160.29209763  .00000620  00000+0  10111-3 0  9994
2 40020  97.9729 289.3660 0077426 302.7376  56.6385 14.72665739641058
DUCHIFAT-1              
1 40021U 14033M   26160.08702089  .00082350  00000+0  90222-3 0  9992
2 40021  98.0464 218.1182 0004324 130.2252 229.9384 15.62989578654485
NANOSATC-BR1            
1 40024U 14033Q   26160.03741032  .00014864  00000+0  49566-3 0  9991
2 40024  98.0734 191.7047 0003543 185.9906 174.1292 15.31195370652739
QB50P1                  
1 40025U 14033R   26159.97738240  .00008544  00000+0  42192-3 0  9996
2 40025  98.0972 170.5484 0007210 248.4220 111.6244 15.18136091651780
DTUSAT-2                
1 40030U 14033W   26160.24594618  .00005707  00000+0  31024-3 0  9993
2 40030  98.0866 157.4695 0006101 258.5460 101.5086 15.14916834651488
QB50P2                  
1 40032U 14033Y   26160.24095752  .00005704  00000+0  30879-3 0  9994
2 40032  98.0755 156.6271 0007175 188.7079 171.4028 15.15057589651464
PERSEUS-M2              
1 40037U 14033AD  26160.30175044  .00001340  00000+0  12649-3 0  9996
2 40037  97.9971 110.6826 0011337 334.3953  25.6705 14.95491602649608
PERSEUS-M1              
1 40039U 14033AF  26160.07469549  .00001427  00000+0  13384-3 0  9991
2 40039  97.9642 104.0737 0010725 332.5515  27.5137 14.95610260649420
POLYITAN-1              
1 40042U 14033AJ  26160.02430242  .00015996  00000+0  50413-3 0  9998
2 40042  98.0953 185.5149 0007989 165.0271 195.1207 15.32968455652347
TIGRISAT                
1 40043U 14033AK  26159.96351942  .00002420  00000+0  28276-3 0  9999
2 40043  97.7823 310.1645 0050700 101.4521 259.2395 14.85130632644401
LEMUR-1                 
1 40044U 14033AL  26160.14206110  .00001964  00000+0  23038-3 0  9991
2 40044  97.7869 310.1271 0049762 104.3033 256.3715 14.85214027644273
AEROCUBE 6A             
1 40045U 14033AM  26160.20866693  .00005102  00000+0  43007-3 0  9993
2 40045  97.7225 327.2428 0039370  44.5114 315.9260 14.98019475645421
AEROCUBE 6B             
1 40046U 14033AN  26159.88512763  .00006500  00000+0  52624-3 0  9990
2 40046  97.7230 326.6943 0039000  37.4874 322.9057 14.99481612645516
SPOT 7                  
1 40053U 14034A   26160.23683302  .00000499  00000+0  11120-3 0  9995
2 40053  98.0627 222.9331 0001175  84.8763 275.2572 14.60952057635977
CANX-4                  
1 40055U 14034C   26160.18089849  .00000855  00000+0  11697-3 0  9992
2 40055  98.3133  35.1997 0013686  41.4631 318.7616 14.81249771643346
CANX-5                  
1 40056U 14034D   26160.17942456  .00000864  00000+0  11810-3 0  9991
2 40056  98.3135  35.2414 0013695  41.5932 318.6319 14.81266924634156
OCO 2                   
1 40059U 14035A   26160.25846523  .00000364  00000+0  90873-4 0  9994
2 40059  98.2016 101.6724 0001484  86.8639 273.2729 14.57104693634896
GONETS-M 8              
1 40061U 14036A   26160.23939182  .00000135  00000+0  89948-3 0  9996
2 40061  82.5110 312.5197 0030316 164.7872 195.4127 12.42985743541460
GONETS-M 9              
1 40062U 14036B   26160.28033953  .00000068  00000+0  41726-3 0  9990
2 40062  82.5108 312.5726 0023459 170.6404 189.5118 12.42950782541473
GONETS-M 10             
1 40063U 14036C   26160.26258745  .00000092  00000+0  59468-3 0  9996
2 40063  82.5112 312.5978 0022340 157.2806 202.9267 12.42945695541262
METEOR-M 2              
1 40069U 14037A   26160.26191314  .00000430  00000+0  21597-3 0  9999
2 40069  98.5114 136.2813 0006993  63.5189 296.6705 14.21460532618190
DX1                     
1 40071U 14037C   26160.23556897  .00001961  00000+0  20998-3 0  9994
2 40071  98.3862 121.4551 0006070 306.9013  53.1646 14.89961763644928
SKYSAT-B                
1 40072U 14037D   26160.12307831  .00001214  00000+0  13893-3 0  9992
2 40072  98.3834 118.6287 0004523 315.1194  44.9654 14.88006530644765
UKUBE-1                 
1 40074U 14037F   26160.23466731  .00007593  00000+0  42922-3 0  9992
2 40074  98.4239 162.6716 0002126 144.7688 215.3682 15.13424303647358
TECHDEMOSAT-1 (TDS-1)   
1 40076U 14037H   26160.22357611  .00006572  00000+0  37464-3 0  9990
2 40076  98.3812 151.6478 0004602 303.4841  56.5948 15.13175953647023
O3B FM3                 
1 40079U 14038A   26160.11020607 -.00000009  00000+0  00000+0 0  9996
2 40079   0.0485 353.9618 0002143 143.6782 222.3788  5.00115664212640
O3B FM7                 
1 40080U 14038B   26160.05631894 -.00000009  00000+0  00000+0 0  9997
2 40080   0.0482 345.2156 0003890  67.9414 306.8809  5.00115629217479
O3B FM6                 
1 40081U 14038C   26160.08330129 -.00000009  00000+0  00000+0 0  9998
2 40081   0.0479 350.6305 0002629  86.9749 282.4262  5.00115732217425
O3B FM8                 
1 40082U 14038D   26160.13656064 -.00000009  00000+0  00000+0 0  9994
2 40082   0.0478 349.4361 0002746  90.2673 280.3298  5.00116041217540
ORBCOMM FM109           
1 40086U 14040A   26160.22221587  .00000471  00000+0  13591-3 0  9994
2 40086  47.0020 129.1440 0001699 223.5414 136.5338 14.58836482633189
