OBJECT_NAME,OBJECT_ID,EPOCH,MEAN_MOTION,ECCENTRICITY,INCLINATION,RA_OF_ASC_NODE,ARG_OF_PERICENTER,MEAN_ANOMALY,EPHEMERIS_TYPE,CLASSIFICATION_TYPE,NORAD_CAT_ID,ELEMENT_SET_NO,REV_AT_EPOCH,BSTAR,MEAN_MOTION_DOT,MEAN_MOTION_DDOT
BRITE-CA1 (TORONTO),2014-033L,2026-06-09T07:00:37.235232,14.72665739,.00774268,97.9729,289.3660,302.7376,56.6385,0,U,40020,999,64105,.1011072E-3,.62E-5,0
DUCHIFAT-1,2014-033M,2026-06-09T02:05:18.604896,15.62989578,.00043246,98.0464,218.1182,130.2252,229.9384,0,U,40021,999,65448,.90222311E-3,.8235E-3,0
NANOSATC-BR1,2014-033Q,2026-06-09T00:53:52.251648,15.31195370,.00035439,98.0734,191.7047,185.9906,174.1292,0,U,40024,999,65273,.49565966E-3,.14864E-3,0
QB50P1,2014-033R,2026-06-08T23:27:25.839360,15.18136091,.00072105,98.0972,170.5484,248.4220,111.6244,0,U,40025,999,65178,.42191604E-3,.8544E-4,0
DTUSAT-2,2014-033W,2026-06-09T05:54:09.749952,15.14916834,.00061017,98.0866,157.4695,258.5460,101.5086,0,U,40030,999,65148,.31023696E-3,.5707E-4,0
QB50P2,2014-033Y,2026-06-09T05:46:58.729728,15.15057589,.00071754,98.0755,156.6271,188.7079,171.4028,0,U,40032,999,65146,.3087945E-3,.5704E-4,0
PERSEUS-M2,2014-033AD,2026-06-09T07:14:31.238016,14.95491602,.00113379,97.9971,110.6826,334.3953,25.6705,0,U,40037,999,64960,.12649007E-3,.134E-4,0
PERSEUS-M1,2014-033AF,2026-06-09T01:47:33.690336,14.95610260,.00107256,97.9642,104.0737,332.5515,27.5137,0,U,40039,999,64942,.13384169E-3,.1427E-4,0
POLYITAN-1,2014-033AJ,2026-06-09T00:34:59.729088,15.32968455,.00079895,98.0953,185.5149,165.0271,195.1207,0,U,40042,999,65234,.50413096E-3,.15996E-3,0
TIGRISAT,2014-033AK,2026-06-08T23:07:28.077888,14.85130632,.00507001,97.7823,310.1645,101.4521,259.2395,0,U,40043,999,64440,.2827626E-3,.242E-4,0
LEMUR-1,2014-033AL,2026-06-09T03:24:34.079040,14.85214027,.00497628,97.7869,310.1271,104.3033,256.3715,0,U,40044,999,64427,.23037784E-3,.1964E-4,0
AEROCUBE 6A,2014-033AM,2026-06-09T05:00:28.822752,14.98019475,.00393706,97.7225,327.2428,44.5114,315.9260,0,U,40045,999,64542,.43006711E-3,.5102E-4,0
AEROCUBE 6B,2014-033AN,2026-06-08T21:14:35.027232,14.99481612,.00390009,97.7230,326.6943,37.4874,322.9057,0,U,40046,999,64551,.5262355E-3,.65E-4,0
SPOT 7,2014-034A,2026-06-09T05:41:02.372928,14.60952057,.0001175,98.0627,222.9331,84.8763,275.2572,0,U,40053,999,63597,.11120177E-3,.499E-5,0
CANX-4,2014-034C,2026-06-09T04:20:29.629536,14.81249771,.00136864,98.3133,35.1997,41.4631,318.7616,0,U,40055,999,64334,.1169708E-3,.855E-5,0
CANX-5,2014-034D,2026-06-09T04:18:22.281984,14.81266924,.00136957,98.3135,35.2414,41.5932,318.6319,0,U,40056,999,63415,.11810238E-3,.864E-5,0
OCO 2,2014-035A,2026-06-09T06:12:11.395872,14.57104693,.00014848,98.2016,101.6724,86.8639,273.2729,0,U,40059,999,63489,.908732E-4,.364E-5,0
GONETS-M 8,2014-036A,2026-06-09T05:44:43.453248,12.42985743,.00303161,82.5110,312.5197,164.7872,195.4127,0,U,40061,999,54146,.89947853E-3,.135E-5,0
GONETS-M 9,2014-036B,2026-06-09T06:43:41.335392,12.42950782,.00234596,82.5108,312.5726,170.6404,189.5118,0,U,40062,999,54147,.41726119E-3,.68E-6,0
GONETS-M 10,2014-036C,2026-06-09T06:18:07.555680,12.42945695,.00223406,82.5112,312.5978,157.2806,202.9267,0,U,40063,999,54126,.59468205E-3,.92E-6,0
METEOR-M 2,2014-037A,2026-06-09T06:17:09.295296,14.21460532,.00069931,98.5114,136.2813,63.5189,296.6705,0,U,40069,999,61819,.21597469E-3,.43E-5,0
DX1,2014-037C,2026-06-09T05:39:13.159008,14.89961763,.00060704,98.3862,121.4551,306.9013,53.1646,0,U,40071,999,64492,.20998251E-3,.1961E-4,0
SKYSAT-B,2014-037D,2026-06-09T02:57:13.965984,14.88006530,.00045236,98.3834,118.6287,315.1194,44.9654,0,U,40072,999,64476,.13893263E-3,.1214E-4,0
UKUBE-1,2014-037F,2026-06-09T05:37:55.255584,15.13424303,.00021263,98.4239,162.6716,144.7688,215.3682,0,U,40074,999,64735,.42922303E-3,.7593E-4,0
TECHDEMOSAT-1 (TDS-1),2014-037H,2026-06-09T05:21:56.975904,15.13175953,.00046023,98.3812,151.6478,303.4841,56.5948,0,U,40076,999,64702,.37463945E-3,.6572E-4,0
O3B FM3,2014-038A,2026-06-09T02:38:41.804448,5.00115664,.00021439,0.0485,353.9618,143.6782,222.3788,0,U,40079,999,21264,0,-.9E-7,0
O3B FM7,2014-038B,2026-06-09T01:21:05.956416,5.00115629,.00038901,0.0482,345.2156,67.9414,306.8809,0,U,40080,999,21747,0,-.9E-7,0
O3B FM6,2014-038C,2026-06-09T01:59:57.231456,5.00115732,.00026295,0.0479,350.6305,86.9749,282.4262,0,U,40081,999,21742,0,-.9E-7,0
O3B FM8,2014-038D,2026-06-09T03:16:38.839296,5.00116041,.0002746,0.0478,349.4361,90.2673,280.3298,0,U,40082,999,21754,0,-.9E-7,0
ORBCOMM FM109,2014-040A,2026-06-09T05:19:59.451168,14.58836482,.00016991,47.0020,129.1440,223.5414,136.5338,0,U,40086,999,63318,.13591393E-3,.471E-5,0
